JY1SAT (JO-97)          
1 43803U 18099AX  26068.68634132  .00017774  00000+0  60804-3 0  9996
2 43803  97.4249 131.3625 0004723 256.6795 103.3919 15.30302628398390
STARLINK-2720           
1 48653U 21044R   26068.81877654 -.00000252  00000+0  36232-5 0  9995
2 48653  53.1589 113.2604 0001337  89.4472 270.6682 15.30186760263845
